OBJECT_NAME,OBJECT_ID,EPOCH,MEAN_MOTION,ECCENTRICITY,INCLINATION,RA_OF_ASC_NODE,ARG_OF_PERICENTER,MEAN_ANOMALY,EPHEMERIS_TYPE,CLASSIFICATION_TYPE,NORAD_CAT_ID,ELEMENT_SET_NO,REV_AT_EPOCH,BSTAR,MEAN_MOTION_DOT,MEAN_MOTION_DDOT
H2SAT (HEINRICH HERTZ),2023-093A,2026-07-08T21:21:38.799360,1.00269353,.00006972,0.0161,102.0164,25.0381,120.9000,0,U,57213,999,1113,0,.16E-6,0
SYRACUSE 4B,2023-093B,2026-07-08T21:21:38.799360,1.00270083,.00004488,0.0244,39.2588,198.4431,3.0841,0,U,57214,999,718,0,0,0
JUPITER 3 (ECHOSTAR 24),2023-108A,2026-07-08T11:15:16.581888,1.00270409,.00011784,0.0222,36.3547,67.5297,256.1287,0,U,57479,999,1085,0,0,0
GALAXY 37 (G-37),2023-112A,2026-07-08T21:38:56.747616,1.00272565,.00018071,0.0186,43.6875,72.7659,8.1390,0,U,57493,999,1076,0,.62E-6,0
LUDI TANCE-4 01A,2023-120A,2026-07-08T00:26:06.611712,1.00265090,.00016704,15.0911,193.4584,26.4984,161.9389,0,U,57624,999,1075,0,-.151E-5,0
TJS-10,2023-169A,2026-07-08T17:57:40.222080,1.00266890,.0004486,2.5967,80.2357,109.3381,98.8957,0,U,58204,999,975,0,-.235E-5,0
ZHONGXING-6E,2023-172A,2026-07-08T22:20:38.642784,1.00265322,.00021366,0.0225,47.1998,64.0659,266.2527,0,U,58253,999,987,0,0,0
YAOGAN-41,2023-197A,2026-07-08T21:07:44.737824,1.00269289,.00143328,3.0909,313.4606,198.0149,215.4864,0,U,58582,999,954,0,-.345E-5,0
OVZON-3,2024-003A,2026-07-08T20:12:38.741184,1.00271549,.00002606,0.0162,65.5395,190.1103,33.9883,0,U,58698,999,766,0,0,0
INSAT-3DS,2024-033A,2026-07-08T20:55:45.887232,1.00272599,.00011934,0.0123,313.7382,165.6770,203.4161,0,U,58990,999,4728,0,-.142E-5,0
MERAH PUTIH 2,2024-035A,2026-07-08T21:04:45.025824,1.00269966,.00010273,0.0196,51.0094,65.9616,238.9923,0,U,58995,999,880,0,-.343E-5,0
TJS-11,2024-037A,2026-07-08T09:06:07.193088,1.00265296,.0002882,4.1725,327.3277,135.6071,72.4685,0,U,59020,999,879,0,-.347E-5,0
HULIANWAN GAOGUI-01 (HG-01),2024-040A,2026-07-08T18:59:28.142016,1.00269834,.00018854,0.0716,332.7935,69.7288,202.7268,0,U,59069,999,754,0,.17E-5,0
EUTELSAT 36D,2024-059A,2026-07-08T19:33:38.577312,1.00271520,.00007272,0.0251,46.6447,147.0558,62.3319,0,U,59346,999,836,0,0,0
PAKSAT-MM1,2024-104A,2026-07-08T07:02:16.322208,1.00266331,.0002136,0.0337,168.1374,277.8364,344.0225,0,U,59915,999,773,0,.169E-5,0
ASTRA 1P (SES-24),2024-115A,2026-07-08T12:04:49.447776,1.00268214,.00005961,0.0639,334.2708,223.6863,288.9173,0,U,60086,999,741,0,.134E-5,0
GOES 19,2024-119A,2026-07-08T20:11:09.903840,1.00271136,.00004934,0.0119,263.9197,290.0939,320.3727,0,U,60133,999,718,0,-.234E-5,0
ZHONGXING-3A,2024-122A,2026-07-08T19:18:52.415712,1.00274030,.000139,0.0337,127.1882,29.5006,161.3435,0,U,60179,999,752,0,-.299E-5,0
TURKSAT 6A,2024-127A,2026-07-07T05:23:26.431008,1.00272408,.00027741,0.0432,192.3892,325.3714,250.2909,0,U,60233,999,721,0,.161E-5,0
HULIANWAN GAOGUI-02 (HG-02),2024-135A,2026-07-08T14:25:27.727104,1.00270958,.00064514,0.0453,354.2629,14.2588,287.4119,0,U,60327,999,771,0,-.16E-5,0
ZHONGXING-4A,2024-151A,2026-07-08T19:23:36.962880,1.00270959,.00002239,1.2614,270.5598,279.6135,145.7159,0,U,60606,999,697,0,-.347E-5,0
HULIANWAN GAOGUI-03 (HG-03),2024-181A,2026-07-08T20:47:45.112704,1.00274061,.00010995,0.0487,357.2397,95.5235,68.8583,0,U,61503,999,704,0,-.227E-5,0
DSN-3 (KIRAMEKI-3),2024-198A,2026-07-08T19:30:58.757184,1.00268816,.0000921,0.0245,283.6351,225.5948,214.3181,0,U,61733,999,613,0,-.236E-5,0
KOREASAT 6A,2024-206A,2026-07-08T21:05:37.442112,1.00269001,.00005546,0.0121,31.6635,64.0596,263.5225,0,U,61910,999,605,0,0,0
OPTUS-X (ADS-01),2024-212A,2026-07-08T21:17:13.828704,1.00269571,.00023305,0.0251,25.9667,127.5962,248.9833,0,U,62006,999,597,0,0,0
GSAT-N2 (GSAT-20),2024-214A,2026-07-08T21:55:44.914656,1.00270865,.0002407,0.0532,259.8438,155.7714,268.1342,0,U,62028,999,611,0,-.5E-7,0
SXM-9,2024-234A,2026-07-08T18:25:29.825184,1.00270330,.00049074,0.0160,338.6738,338.3235,160.9434,0,U,62259,999,579,0,-.191E-5,0
TJS-12,2024-246A,2026-07-08T19:31:43.685184,1.00270836,.0001864,0.6259,301.2833,100.1279,324.8423,0,U,62374,999,578,0,-.216E-5,0
NUVIEW ALPHA,2024-252B,2026-07-08T11:35:37.247136,1.00271831,.00009546,0.0457,28.0885,40.9142,308.2379,0,U,62455,999,403,0,-.201E-5,0
AGILA,2024-252C,2026-07-08T19:33:21.030336,1.00271018,.00011104,0.0595,123.5459,20.5870,228.1159,0,U,62456,999,537,0,-.167E-5,0
NUVIEW BRAVO,2024-252D,2026-07-08T01:19:42.353184,1.00272698,.00015329,0.0684,163.0174,350.8657,68.9577,0,U,62457,999,400,0,-.2E-5,0
THURAYA-4,2025-001A,2026-07-08T19:25:38.631360,1.00273482,.00001388,0.0206,69.6227,182.3236,10.5267,0,U,62483,999,439,0,.154E-5,0
