H2SAT (HEINRICH HERTZ)  
1 57213U 23093A   26189.89003240  .00000016  00000+0  00000+0 0  9992
2 57213   0.0161 102.0164 0000697  25.0381 120.9000  1.00269353 11130
SYRACUSE 4B             
1 57214U 23093B   26189.89003240  .00000000  00000+0  00000+0 0  9996
2 57214   0.0244  39.2588 0000448 198.4431   3.0841  1.00270083  7185
JUPITER 3 (ECHOSTAR 24) 
1 57479U 23108A   26189.46894192  .00000000  00000+0  00000+0 0  9993
2 57479   0.0222  36.3547 0001178  67.5297 256.1287  1.00270409 10859
GALAXY 37 (G-37)        
1 57493U 23112A   26189.90204569  .00000062  00000+0  00000+0 0  9994
2 57493   0.0186  43.6875 0001807  72.7659   8.1390  1.00272565 10763
LUDI TANCE-4 01A        
1 57624U 23120A   26189.01813208 -.00000151  00000+0  00000+0 0  9997
2 57624  15.0911 193.4584 0001670  26.4984 161.9389  1.00265090 10757
TJS-10                  
1 58204U 23169A   26189.74838220 -.00000235  00000+0  00000+0 0  9999
2 58204   2.5967  80.2357 0004486 109.3381  98.8957  1.00266890  9751
ZHONGXING-6E            
1 58253U 23172A   26189.93100281  .00000000  00000+0  00000+0 0  9996
2 58253   0.0225  47.1998 0002136  64.0659 266.2527  1.00265322  9879
YAOGAN-41               
1 58582U 23197A   26189.88037891 -.00000345  00000+0  00000+0 0  9991
2 58582   3.0909 313.4606 0014332 198.0149 215.4864  1.00269289  9544
OVZON-3                 
1 58698U 24003A   26189.84211506  .00000000  00000+0  00000+0 0  9996
2 58698   0.0162  65.5395 0000260 190.1103  33.9883  1.00271549  7665
INSAT-3DS               
1 58990U 24033A   26189.87205888 -.00000142  00000+0  00000+0 0  9991
2 58990   0.0123 313.7382 0001193 165.6770 203.4161  1.00272599 47285
MERAH PUTIH 2           
1 58995U 24035A   26189.87829891 -.00000343  00000+0  00000+0 0  9997
2 58995   0.0196  51.0094 0001027  65.9616 238.9923  1.00269966  8807
TJS-11                  
1 59020U 24037A   26189.37924992 -.00000347  00000+0  00000+0 0  9996
2 59020   4.1725 327.3277 0002882 135.6071  72.4685  1.00265296  8798
HULIANWAN GAOGUI-01 (H*)
1 59069U 24040A   26189.79129794  .00000170  00000+0  00000+0 0  9999
2 59069   0.0716 332.7935 0001885  69.7288 202.7268  1.00269834  7545
EUTELSAT 36D            
1 59346U 24059A   26189.81502983  .00000000  00000+0  00000+0 0  9997
2 59346   0.0251  46.6447 0000727 147.0558  62.3319  1.00271520  8363
PAKSAT-MM1              
1 59915U 24104A   26189.29324447  .00000169  00000+0  00000+0 0  9995
2 59915   0.0337 168.1374 0002136 277.8364 344.0225  1.00266331  7732
ASTRA 1P (SES-24)       
1 60086U 24115A   26189.50335009  .00000134  00000+0  00000+0 0  9990
2 60086   0.0639 334.2708 0000596 223.6863 288.9173  1.00268214  7411
GOES 19                 
1 60133U 24119A   26189.84108685 -.00000234  00000+0  00000+0 0  9994
2 60133   0.0119 263.9197 0000493 290.0939 320.3727  1.00271136  7182
ZHONGXING-3A            
1 60179U 24122A   26189.80477333 -.00000299  00000+0  00000+0 0  9994
2 60179   0.0337 127.1882 0001390  29.5006 161.3435  1.00274030  7526
TURKSAT 6A              
1 60233U 24127A   26188.22461147  .00000161  00000+0  00000+0 0  9998
2 60233   0.0432 192.3892 0002774 325.3714 250.2909  1.00272408  7215
HULIANWAN GAOGUI-02 (H*)
1 60327U 24135A   26189.60101536 -.00000160  00000+0  00000+0 0  9997
2 60327   0.0453 354.2629 0006451  14.2588 287.4119  1.00270958  7716
ZHONGXING-4A            
1 60606U 24151A   26189.80806670 -.00000347  00000+0  00000+0 0  9995
2 60606   1.2614 270.5598 0000223 279.6135 145.7159  1.00270959  6977
HULIANWAN GAOGUI-03 (H*)
1 61503U 24181A   26189.86649436 -.00000227  00000+0  00000+0 0  9993
2 61503   0.0487 357.2397 0001099  95.5235  68.8583  1.00274061  7040
DSN-3 (KIRAMEKI-3)      
1 61733U 24198A   26189.81318006 -.00000236  00000+0  00000+0 0  9997
2 61733   0.0245 283.6351 0000921 225.5948 214.3181  1.00268816  6130
KOREASAT 6A             
1 61910U 24206A   26189.87890558  .00000000  00000+0  00000+0 0  9995
2 61910   0.0121  31.6635 0000554  64.0596 263.5225  1.00269001  6056
OPTUS-X (ADS-01)        
1 62006U 24212A   26189.88696561  .00000000  00000+0  00000+0 0  9998
2 62006   0.0251  25.9667 0002330 127.5962 248.9833  1.00269571  5978
GSAT-N2 (GSAT-20)       
1 62028U 24214A   26189.91371429 -.00000005  00000+0  00000+0 0  9997
2 62028   0.0532 259.8438 0002407 155.7714 268.1342  1.00270865  6115
SXM-9                   
1 62259U 24234A   26189.76770631 -.00000191  00000+0  00000+0 0  9992
2 62259   0.0160 338.6738 0004907 338.3235 160.9434  1.00270330  5792
TJS-12                  
1 62374U 24246A   26189.81370006 -.00000216  00000+0  00000+0 0  9999
2 62374   0.6259 301.2833 0001864 100.1279 324.8423  1.00270836  5788
NUVIEW ALPHA            
1 62455U 24252B   26189.48306999 -.00000201  00000+0  00000+0 0  9993
2 62455   0.0457  28.0885 0000954  40.9142 308.2379  1.00271831  4031
AGILA                   
1 62456U 24252C   26189.81482674 -.00000167  00000+0  00000+0 0  9997
2 62456   0.0595 123.5459 0001110  20.5870 228.1159  1.00271018  5371
NUVIEW BRAVO            
1 62457U 24252D   26189.05535131 -.00000200  00000+0  00000+0 0  9999
2 62457   0.0684 163.0174 0001532 350.8657  68.9577  1.00272698  4002
THURAYA-4               
1 62483U 25001A   26189.80947490  .00000154  00000+0  00000+0 0  9996
2 62483   0.0206  69.6227 0000138 182.3236  10.5267  1.00273482  4396
